{
  "type": "FeatureCollection",
  "features": [
    {
      "type": "Feature",
      "properties": {
        "name": "NH-48 (Chennai - Kanchipuram - Ranipet Corridor)",
        "highway": "trunk",
        "state": "Tamil Nadu"
      },
      "geometry": {
        "type": "LineString",
        "coordinates": [
          [
            80.27,
            13.08
          ],
          [
            79.7,
            12.83
          ],
          [
            79.33,
            12.92
          ],
          [
            79.13,
            12.91
          ]
        ]
      }
    },
    {
      "type": "Feature",
      "properties": {
        "name": "NH-44 (Krishnagiri - Dharmapuri - Salem - Namakkal - Karur - Dindigul - Madurai - Tirunelveli - Kanyakumari North-South Corridor)",
        "highway": "trunk",
        "state": "Tamil Nadu"
      },
      "geometry": {
        "type": "LineString",
        "coordinates": [
          [
            78.21,
            12.51
          ],
          [
            78.15,
            12.12
          ],
          [
            78.14,
            11.66
          ],
          [
            78.16,
            11.21
          ],
          [
            78.07,
            10.96
          ],
          [
            77.98,
            10.36
          ],
          [
            78.11,
            9.92
          ],
          [
            77.75,
            8.71
          ],
          [
            77.53,
            8.08
          ]
        ]
      }
    },
    {
      "type": "Feature",
      "properties": {
        "name": "NH-544 (Salem - Erode - Tiruppur - Coimbatore Western Corridor)",
        "highway": "trunk",
        "state": "Tamil Nadu"
      },
      "geometry": {
        "type": "LineString",
        "coordinates": [
          [
            78.14,
            11.66
          ],
          [
            77.71,
            11.34
          ],
          [
            77.34,
            11.1
          ],
          [
            76.95,
            11.01
          ]
        ]
      }
    },
    {
      "type": "Feature",
      "properties": {
        "name": "NH-38 (Chennai - Villupuram - Cuddalore - Trichy - Madurai Highway)",
        "highway": "trunk",
        "state": "Tamil Nadu"
      },
      "geometry": {
        "type": "LineString",
        "coordinates": [
          [
            80.27,
            13.08
          ],
          [
            79.48,
            11.94
          ],
          [
            78.7,
            10.79
          ],
          [
            78.11,
            9.92
          ]
        ]
      }
    },
    {
      "type": "Feature",
      "properties": {
        "name": "East Coast Road (ECR Highway: Chennai - Mahabalipuram - Puducherry - Cuddalore - Nagapattinam - Thoothukudi)",
        "highway": "trunk",
        "state": "Tamil Nadu"
      },
      "geometry": {
        "type": "LineString",
        "coordinates": [
          [
            80.27,
            13.08
          ],
          [
            79.98,
            12.68
          ],
          [
            79.77,
            11.74
          ],
          [
            79.84,
            10.76
          ],
          [
            78.13,
            8.76
          ]
        ]
      }
    }
  ]
}