{
  "type": "FeatureCollection",
  "name": "Tamil_Nadu_38_Districts_Statewide",
  "crs": {
    "type": "name",
    "properties": {
      "name": "urn:ogc:def:crs:OGC:1.3:CRS84"
    }
  },
  "total_districts": 38,
  "features": [
    {
      "type": "Feature",
      "properties": {
        "state": "Tamil Nadu",
        "district": "Chennai",
        "region": "Northern Coastal",
        "district_id": "TN_DIST_CHENNAI"
      },
      "geometry": {
        "type": "Polygon",
        "coordinates": [
          [
            [
              12.8827,
              80.0707
            ],
            [
              13.2827,
              80.0707
            ],
            [
              13.2827,
              80.4707
            ],
            [
              12.8827,
              80.4707
            ],
            [
              12.8827,
              80.0707
            ]
          ]
        ]
      }
    },
    {
      "type": "Feature",
      "properties": {
        "state": "Tamil Nadu",
        "district": "Kanchipuram",
        "region": "Northern",
        "district_id": "TN_DIST_KANCHIPURAM"
      },
      "geometry": {
        "type": "Polygon",
        "coordinates": [
          [
            [
              12.6342,
              79.5036
            ],
            [
              13.0342,
              79.5036
            ],
            [
              13.0342,
              79.9036
            ],
            [
              12.6342,
              79.9036
            ],
            [
              12.6342,
              79.5036
            ]
          ]
        ]
      }
    },
    {
      "type": "Feature",
      "properties": {
        "state": "Tamil Nadu",
        "district": "Chengalpattu",
        "region": "Northern Coastal",
        "district_id": "TN_DIST_CHENGALPATTU"
      },
      "geometry": {
        "type": "Polygon",
        "coordinates": [
          [
            [
              12.4841,
              79.7836
            ],
            [
              12.8841,
              79.7836
            ],
            [
              12.8841,
              80.1836
            ],
            [
              12.4841,
              80.1836
            ],
            [
              12.4841,
              79.7836
            ]
          ]
        ]
      }
    },
    {
      "type": "Feature",
      "properties": {
        "state": "Tamil Nadu",
        "district": "Thiruvallur",
        "region": "Northern",
        "district_id": "TN_DIST_THIRUVALLUR"
      },
      "geometry": {
        "type": "Polygon",
        "coordinates": [
          [
            [
              12.9432,
              79.7079
            ],
            [
              13.3432,
              79.7079
            ],
            [
              13.3432,
              80.1079
            ],
            [
              12.9432,
              80.1079
            ],
            [
              12.9432,
              79.7079
            ]
          ]
        ]
      }
    },
    {
      "type": "Feature",
      "properties": {
        "state": "Tamil Nadu",
        "district": "Vellore",
        "region": "Northern Inland",
        "district_id": "TN_DIST_VELLORE"
      },
      "geometry": {
        "type": "Polygon",
        "coordinates": [
          [
            [
              12.7165,
              78.9325
            ],
            [
              13.1165,
              78.9325
            ],
            [
              13.1165,
              79.3325
            ],
            [
              12.7165,
              79.3325
            ],
            [
              12.7165,
              78.9325
            ]
          ]
        ]
      }
    },
    {
      "type": "Feature",
      "properties": {
        "state": "Tamil Nadu",
        "district": "Ranipet",
        "region": "Northern Inland",
        "district_id": "TN_DIST_RANIPET"
      },
      "geometry": {
        "type": "Polygon",
        "coordinates": [
          [
            [
              12.7287,
              79.1333
            ],
            [
              13.1287,
              79.1333
            ],
            [
              13.1287,
              79.5333
            ],
            [
              12.7287,
              79.5333
            ],
            [
              12.7287,
              79.1333
            ]
          ]
        ]
      }
    },
    {
      "type": "Feature",
      "properties": {
        "state": "Tamil Nadu",
        "district": "Tirupathur",
        "region": "Northern Inland",
        "district_id": "TN_DIST_TIRUPATHUR"
      },
      "geometry": {
        "type": "Polygon",
        "coordinates": [
          [
            [
              12.2939,
              78.3663
            ],
            [
              12.6939,
              78.3663
            ],
            [
              12.6939,
              78.7663
            ],
            [
              12.2939,
              78.7663
            ],
            [
              12.2939,
              78.3663
            ]
          ]
        ]
      }
    },
    {
      "type": "Feature",
      "properties": {
        "state": "Tamil Nadu",
        "district": "Tiruvannamalai",
        "region": "Northern Inland",
        "district_id": "TN_DIST_TIRUVANNAMALAI"
      },
      "geometry": {
        "type": "Polygon",
        "coordinates": [
          [
            [
              12.0253,
              78.8747
            ],
            [
              12.4253,
              78.8747
            ],
            [
              12.4253,
              79.2747
            ],
            [
              12.0253,
              79.2747
            ],
            [
              12.0253,
              78.8747
            ]
          ]
        ]
      }
    },
    {
      "type": "Feature",
      "properties": {
        "state": "Tamil Nadu",
        "district": "Cuddalore",
        "region": "Central Coastal",
        "district_id": "TN_DIST_CUDDALORE"
      },
      "geometry": {
        "type": "Polygon",
        "coordinates": [
          [
            [
              11.548,
              79.5714
            ],
            [
              11.948,
              79.5714
            ],
            [
              11.948,
              79.9714
            ],
            [
              11.548,
              79.9714
            ],
            [
              11.548,
              79.5714
            ]
          ]
        ]
      }
    },
    {
      "type": "Feature",
      "properties": {
        "state": "Tamil Nadu",
        "district": "Villupuram",
        "region": "Central",
        "district_id": "TN_DIST_VILLUPURAM"
      },
      "geometry": {
        "type": "Polygon",
        "coordinates": [
          [
            [
              11.7401,
              79.2861
            ],
            [
              12.1401,
              79.2861
            ],
            [
              12.1401,
              79.6861
            ],
            [
              11.7401,
              79.6861
            ],
            [
              11.7401,
              79.2861
            ]
          ]
        ]
      }
    },
    {
      "type": "Feature",
      "properties": {
        "state": "Tamil Nadu",
        "district": "Kallakurichi",
        "region": "Central Inland",
        "district_id": "TN_DIST_KALLAKURICHI"
      },
      "geometry": {
        "type": "Polygon",
        "coordinates": [
          [
            [
              11.5384,
              78.7639
            ],
            [
              11.9384,
              78.7639
            ],
            [
              11.9384,
              79.1639
            ],
            [
              11.5384,
              79.1639
            ],
            [
              11.5384,
              78.7639
            ]
          ]
        ]
      }
    },
    {
      "type": "Feature",
      "properties": {
        "state": "Tamil Nadu",
        "district": "Salem",
        "region": "Western Inland",
        "district_id": "TN_DIST_SALEM"
      },
      "geometry": {
        "type": "Polygon",
        "coordinates": [
          [
            [
              11.4643,
              77.946
            ],
            [
              11.8643,
              77.946
            ],
            [
              11.8643,
              78.346
            ],
            [
              11.4643,
              78.346
            ],
            [
              11.4643,
              77.946
            ]
          ]
        ]
      }
    },
    {
      "type": "Feature",
      "properties": {
        "state": "Tamil Nadu",
        "district": "Namakkal",
        "region": "Western Inland",
        "district_id": "TN_DIST_NAMAKKAL"
      },
      "geometry": {
        "type": "Polygon",
        "coordinates": [
          [
            [
              11.0189,
              77.9674
            ],
            [
              11.4189,
              77.9674
            ],
            [
              11.4189,
              78.3674
            ],
            [
              11.0189,
              78.3674
            ],
            [
              11.0189,
              77.9674
            ]
          ]
        ]
      }
    },
    {
      "type": "Feature",
      "properties": {
        "state": "Tamil Nadu",
        "district": "Dharmapuri",
        "region": "Western Inland",
        "district_id": "TN_DIST_DHARMAPURI"
      },
      "geometry": {
        "type": "Polygon",
        "coordinates": [
          [
            [
              11.9211,
              77.9582
            ],
            [
              12.3211,
              77.9582
            ],
            [
              12.3211,
              78.3582
            ],
            [
              11.9211,
              78.3582
            ],
            [
              11.9211,
              77.9582
            ]
          ]
        ]
      }
    },
    {
      "type": "Feature",
      "properties": {
        "state": "Tamil Nadu",
        "district": "Krishnagiri",
        "region": "Western Inland",
        "district_id": "TN_DIST_KRISHNAGIRI"
      },
      "geometry": {
        "type": "Polygon",
        "coordinates": [
          [
            [
              12.3186,
              78.0137
            ],
            [
              12.7186,
              78.0137
            ],
            [
              12.7186,
              78.4137
            ],
            [
              12.3186,
              78.4137
            ],
            [
              12.3186,
              78.0137
            ]
          ]
        ]
      }
    },
    {
      "type": "Feature",
      "properties": {
        "state": "Tamil Nadu",
        "district": "Erode",
        "region": "Western",
        "district_id": "TN_DIST_ERODE"
      },
      "geometry": {
        "type": "Polygon",
        "coordinates": [
          [
            [
              11.141,
              77.5172
            ],
            [
              11.541,
              77.5172
            ],
            [
              11.541,
              77.9172
            ],
            [
              11.141,
              77.9172
            ],
            [
              11.141,
              77.5172
            ]
          ]
        ]
      }
    },
    {
      "type": "Feature",
      "properties": {
        "state": "Tamil Nadu",
        "district": "Tiruppur",
        "region": "Western",
        "district_id": "TN_DIST_TIRUPPUR"
      },
      "geometry": {
        "type": "Polygon",
        "coordinates": [
          [
            [
              10.9085,
              77.1411
            ],
            [
              11.3085,
              77.1411
            ],
            [
              11.3085,
              77.5411
            ],
            [
              10.9085,
              77.5411
            ],
            [
              10.9085,
              77.1411
            ]
          ]
        ]
      }
    },
    {
      "type": "Feature",
      "properties": {
        "state": "Tamil Nadu",
        "district": "Coimbatore",
        "region": "Western",
        "district_id": "TN_DIST_COIMBATORE"
      },
      "geometry": {
        "type": "Polygon",
        "coordinates": [
          [
            [
              10.8168,
              76.7558
            ],
            [
              11.2168,
              76.7558
            ],
            [
              11.2168,
              77.1558
            ],
            [
              10.8168,
              77.1558
            ],
            [
              10.8168,
              76.7558
            ]
          ]
        ]
      }
    },
    {
      "type": "Feature",
      "properties": {
        "state": "Tamil Nadu",
        "district": "The Nilgiris",
        "region": "Western Hilly",
        "district_id": "TN_DIST_THE_NILGIRIS"
      },
      "geometry": {
        "type": "Polygon",
        "coordinates": [
          [
            [
              11.2916,
              76.5337
            ],
            [
              11.6916,
              76.5337
            ],
            [
              11.6916,
              76.9337
            ],
            [
              11.2916,
              76.9337
            ],
            [
              11.2916,
              76.5337
            ]
          ]
        ]
      }
    },
    {
      "type": "Feature",
      "properties": {
        "state": "Tamil Nadu",
        "district": "Thanjavur",
        "region": "Cauvery Delta",
        "district_id": "TN_DIST_THANJAVUR"
      },
      "geometry": {
        "type": "Polygon",
        "coordinates": [
          [
            [
              10.587,
              78.9378
            ],
            [
              10.987,
              78.9378
            ],
            [
              10.987,
              79.3378
            ],
            [
              10.587,
              79.3378
            ],
            [
              10.587,
              78.9378
            ]
          ]
        ]
      }
    },
    {
      "type": "Feature",
      "properties": {
        "state": "Tamil Nadu",
        "district": "Tiruvarur",
        "region": "Cauvery Delta",
        "district_id": "TN_DIST_TIRUVARUR"
      },
      "geometry": {
        "type": "Polygon",
        "coordinates": [
          [
            [
              10.5725,
              79.4365
            ],
            [
              10.9725,
              79.4365
            ],
            [
              10.9725,
              79.8365
            ],
            [
              10.5725,
              79.8365
            ],
            [
              10.5725,
              79.4365
            ]
          ]
        ]
      }
    },
    {
      "type": "Feature",
      "properties": {
        "state": "Tamil Nadu",
        "district": "Nagapattinam",
        "region": "Cauvery Delta Coastal",
        "district_id": "TN_DIST_NAGAPATTINAM"
      },
      "geometry": {
        "type": "Polygon",
        "coordinates": [
          [
            [
              10.5656,
              79.6424
            ],
            [
              10.9656,
              79.6424
            ],
            [
              10.9656,
              80.0424
            ],
            [
              10.5656,
              80.0424
            ],
            [
              10.5656,
              79.6424
            ]
          ]
        ]
      }
    },
    {
      "type": "Feature",
      "properties": {
        "state": "Tamil Nadu",
        "district": "Mayiladuthurai",
        "region": "Cauvery Delta Coastal",
        "district_id": "TN_DIST_MAYILADUTHURAI"
      },
      "geometry": {
        "type": "Polygon",
        "coordinates": [
          [
            [
              10.9018,
              79.4522
            ],
            [
              11.3018,
              79.4522
            ],
            [
              11.3018,
              79.8522
            ],
            [
              10.9018,
              79.8522
            ],
            [
              10.9018,
              79.4522
            ]
          ]
        ]
      }
    },
    {
      "type": "Feature",
      "properties": {
        "state": "Tamil Nadu",
        "district": "Tiruchirappalli",
        "region": "Central Delta",
        "district_id": "TN_DIST_TIRUCHIRAPPALLI"
      },
      "geometry": {
        "type": "Polygon",
        "coordinates": [
          [
            [
              10.5905,
              78.5047
            ],
            [
              10.9905,
              78.5047
            ],
            [
              10.9905,
              78.9047
            ],
            [
              10.5905,
              78.9047
            ],
            [
              10.5905,
              78.5047
            ]
          ]
        ]
      }
    },
    {
      "type": "Feature",
      "properties": {
        "state": "Tamil Nadu",
        "district": "Perambalur",
        "region": "Central",
        "district_id": "TN_DIST_PERAMBALUR"
      },
      "geometry": {
        "type": "Polygon",
        "coordinates": [
          [
            [
              11.0342,
              78.682
            ],
            [
              11.4342,
              78.682
            ],
            [
              11.4342,
              79.082
            ],
            [
              11.0342,
              79.082
            ],
            [
              11.0342,
              78.682
            ]
          ]
        ]
      }
    },
    {
      "type": "Feature",
      "properties": {
        "state": "Tamil Nadu",
        "district": "Ariyalur",
        "region": "Central",
        "district_id": "TN_DIST_ARIYALUR"
      },
      "geometry": {
        "type": "Polygon",
        "coordinates": [
          [
            [
              10.9401,
              78.8786
            ],
            [
              11.3401,
              78.8786
            ],
            [
              11.3401,
              79.2786
            ],
            [
              10.9401,
              79.2786
            ],
            [
              10.9401,
              78.8786
            ]
          ]
        ]
      }
    },
    {
      "type": "Feature",
      "properties": {
        "state": "Tamil Nadu",
        "district": "Pudukkottai",
        "region": "Southern Delta",
        "district_id": "TN_DIST_PUDUKKOTTAI"
      },
      "geometry": {
        "type": "Polygon",
        "coordinates": [
          [
            [
              10.1833,
              78.6
            ],
            [
              10.5833,
              78.6
            ],
            [
              10.5833,
              79.0
            ],
            [
              10.1833,
              79.0
            ],
            [
              10.1833,
              78.6
            ]
          ]
        ]
      }
    },
    {
      "type": "Feature",
      "properties": {
        "state": "Tamil Nadu",
        "district": "Karur",
        "region": "Central Inland",
        "district_id": "TN_DIST_KARUR"
      },
      "geometry": {
        "type": "Polygon",
        "coordinates": [
          [
            [
              10.7601,
              77.8766
            ],
            [
              11.1601,
              77.8766
            ],
            [
              11.1601,
              78.2766
            ],
            [
              10.7601,
              78.2766
            ],
            [
              10.7601,
              77.8766
            ]
          ]
        ]
      }
    },
    {
      "type": "Feature",
      "properties": {
        "state": "Tamil Nadu",
        "district": "Madurai",
        "region": "Southern Central",
        "district_id": "TN_DIST_MADURAI"
      },
      "geometry": {
        "type": "Polygon",
        "coordinates": [
          [
            [
              9.7252,
              77.9198
            ],
            [
              10.1252,
              77.9198
            ],
            [
              10.1252,
              78.3198
            ],
            [
              9.7252,
              78.3198
            ],
            [
              9.7252,
              77.9198
            ]
          ]
        ]
      }
    },
    {
      "type": "Feature",
      "properties": {
        "state": "Tamil Nadu",
        "district": "Theni",
        "region": "Southern Western Ghats",
        "district_id": "TN_DIST_THENI"
      },
      "geometry": {
        "type": "Polygon",
        "coordinates": [
          [
            [
              9.8104,
              77.2768
            ],
            [
              10.2104,
              77.2768
            ],
            [
              10.2104,
              77.6768
            ],
            [
              9.8104,
              77.6768
            ],
            [
              9.8104,
              77.2768
            ]
          ]
        ]
      }
    },
    {
      "type": "Feature",
      "properties": {
        "state": "Tamil Nadu",
        "district": "Dindigul",
        "region": "Southern Central",
        "district_id": "TN_DIST_DINDIGUL"
      },
      "geometry": {
        "type": "Polygon",
        "coordinates": [
          [
            [
              10.1673,
              77.7803
            ],
            [
              10.5673,
              77.7803
            ],
            [
              10.5673,
              78.1803
            ],
            [
              10.1673,
              78.1803
            ],
            [
              10.1673,
              77.7803
            ]
          ]
        ]
      }
    },
    {
      "type": "Feature",
      "properties": {
        "state": "Tamil Nadu",
        "district": "Ramanathapuram",
        "region": "Southern Coastal",
        "district_id": "TN_DIST_RAMANATHAPURAM"
      },
      "geometry": {
        "type": "Polygon",
        "coordinates": [
          [
            [
              9.1639,
              78.6395
            ],
            [
              9.5639,
              78.6395
            ],
            [
              9.5639,
              79.0395
            ],
            [
              9.1639,
              79.0395
            ],
            [
              9.1639,
              78.6395
            ]
          ]
        ]
      }
    },
    {
      "type": "Feature",
      "properties": {
        "state": "Tamil Nadu",
        "district": "Sivaganga",
        "region": "Southern",
        "district_id": "TN_DIST_SIVAGANGA"
      },
      "geometry": {
        "type": "Polygon",
        "coordinates": [
          [
            [
              9.6433,
              78.2809
            ],
            [
              10.0433,
              78.2809
            ],
            [
              10.0433,
              78.6809
            ],
            [
              9.6433,
              78.6809
            ],
            [
              9.6433,
              78.2809
            ]
          ]
        ]
      }
    },
    {
      "type": "Feature",
      "properties": {
        "state": "Tamil Nadu",
        "district": "Virudhunagar",
        "region": "Southern",
        "district_id": "TN_DIST_VIRUDHUNAGAR"
      },
      "geometry": {
        "type": "Polygon",
        "coordinates": [
          [
            [
              9.368,
              77.7624
            ],
            [
              9.768,
              77.7624
            ],
            [
              9.768,
              78.1624
            ],
            [
              9.368,
              78.1624
            ],
            [
              9.368,
              77.7624
            ]
          ]
        ]
      }
    },
    {
      "type": "Feature",
      "properties": {
        "state": "Tamil Nadu",
        "district": "Tirunelveli",
        "region": "Deep South",
        "district_id": "TN_DIST_TIRUNELVELI"
      },
      "geometry": {
        "type": "Polygon",
        "coordinates": [
          [
            [
              8.5139,
              77.5567
            ],
            [
              8.9139,
              77.5567
            ],
            [
              8.9139,
              77.9567
            ],
            [
              8.5139,
              77.9567
            ],
            [
              8.5139,
              77.5567
            ]
          ]
        ]
      }
    },
    {
      "type": "Feature",
      "properties": {
        "state": "Tamil Nadu",
        "district": "Tenkasi",
        "region": "Deep South Western Ghats",
        "district_id": "TN_DIST_TENKASI"
      },
      "geometry": {
        "type": "Polygon",
        "coordinates": [
          [
            [
              8.7593,
              77.115
            ],
            [
              9.1593,
              77.115
            ],
            [
              9.1593,
              77.515
            ],
            [
              8.7593,
              77.515
            ],
            [
              8.7593,
              77.115
            ]
          ]
        ]
      }
    },
    {
      "type": "Feature",
      "properties": {
        "state": "Tamil Nadu",
        "district": "Thoothukudi",
        "region": "Deep South Coastal",
        "district_id": "TN_DIST_THOOTHUKUDI"
      },
      "geometry": {
        "type": "Polygon",
        "coordinates": [
          [
            [
              8.5642,
              77.9348
            ],
            [
              8.9642,
              77.9348
            ],
            [
              8.9642,
              78.3348
            ],
            [
              8.5642,
              78.3348
            ],
            [
              8.5642,
              77.9348
            ]
          ]
        ]
      }
    },
    {
      "type": "Feature",
      "properties": {
        "state": "Tamil Nadu",
        "district": "Kanyakumari",
        "region": "Southernmost Coastal",
        "district_id": "TN_DIST_KANYAKUMARI"
      },
      "geometry": {
        "type": "Polygon",
        "coordinates": [
          [
            [
              7.8883,
              77.3385
            ],
            [
              8.2883,
              77.3385
            ],
            [
              8.2883,
              77.7385
            ],
            [
              7.8883,
              77.7385
            ],
            [
              7.8883,
              77.3385
            ]
          ]
        ]
      }
    }
  ]
}